sat06828
1 06828U 73065A   20046.83341949  .00000009  00000-0 -67256-5 0  9999
2 06828  82.9383  77.8714 0027818 174.0288   0.0114 13.75142383328937
